{
  "type": "FeatureCollection",
  "features": [
    {
      "type": "Feature",
      "properties": {
        "norad_id": 35469,
        "name": "COSMOS 2251 DEB",
        "group": "cosmos-2251-debris",
        "lat": 30.240441706796737,
        "lon": 49.065073245615785,
        "alt_km": 777.4407539085851,
        "timestamp": "2025-12-04T10:51:50.502239+00:00",
        "meta_object_name": "COSMOS 2251 DEB",
        "meta_object_id": "1993-036ALP",
        "meta_epoch": "2025-12-03T21:28:04.609056",
        "meta_mean_motion": 14.49806427,
        "meta_eccentricity": 0.007734,
        "meta_inclination": 74.018,
        "meta_ra_of_asc_node": 40.4961,
        "meta_arg_of_pericenter": 198.0147,
        "meta_mean_anomaly": 161.8271,
        "meta_ephemeris_type": 0,
        "meta_classification_type": "U",
        "meta_norad_cat_id": 35469,
        "meta_element_set_no": 999,
        "meta_rev_at_epoch": 87983,
        "meta_bstar": 0.00023643,
        "meta_mean_motion_dot": 9.18e-06,
        "meta_mean_motion_ddot": 0,
        "tle_line1": "1 35469U 93036ALP 25337.89449779  .00000918  00000+0  23643-3 0  9993",
        "tle_line2": "2 35469  74.0180  40.4961 0077340 198.0147 161.8271 14.49806427879830"
      },
      "geometry": {
        "type": "Point",
        "coordinates": [
          49.065073245615785,
          30.240441706796737
        ]
      }
    },
    {
      "type": "Feature",
      "properties": {
        "norad_id": 35475,
        "name": "COSMOS 2251 DEB",
        "group": "cosmos-2251-debris",
        "lat": 14.924351765721552,
        "lon": -173.9245928535461,
        "alt_km": 671.0582970276964,
        "timestamp": "2025-12-04T10:51:50.502249+00:00",
        "meta_object_name": "COSMOS 2251 DEB",
        "meta_object_id": "1993-036ALV",
        "meta_epoch": "2025-12-02T06:30:21.330144",
        "meta_mean_motion": 14.69388033,
        "meta_eccentricity": 0.0021308,
        "meta_inclination": 74.022,
        "meta_ra_of_asc_node": 185.9231,
        "meta_arg_of_pericenter": 259.5642,
        "meta_mean_anomaly": 100.3127,
        "meta_ephemeris_type": 0,
        "meta_classification_type": "U",
        "meta_norad_cat_id": 35475,
        "meta_element_set_no": 999,
        "meta_rev_at_epoch": 65463,
        "meta_bstar": 0.0018441,
        "meta_mean_motion_dot": 0.00010931,
        "meta_mean_motion_ddot": 0,
        "tle_line1": "1 35475U 93036ALV 25336.27108021  .00010931  00000+0  18441-2 0  9998",
        "tle_line2": "2 35475  74.0220 185.9231 0021308 259.5642 100.3127 14.69388033654630"
      },
      "geometry": {
        "type": "Point",
        "coordinates": [
          -173.9245928535461,
          14.924351765721552
        ]
      }
    },
    {
      "type": "Feature",
      "properties": {
        "norad_id": 35476,
        "name": "COSMOS 2251 DEB",
        "group": "cosmos-2251-debris",
        "lat": 42.23387765282774,
        "lon": 92.30288297594205,
        "alt_km": 628.7577542278268,
        "timestamp": "2025-12-04T10:51:50.502270+00:00",
        "meta_object_name": "COSMOS 2251 DEB",
        "meta_object_id": "1993-036ALW",
        "meta_epoch": "2025-12-04T01:08:59.659872",
        "meta_mean_motion": 14.7535111,
        "meta_eccentricity": 0.0017249,
        "meta_inclination": 73.9786,
        "meta_ra_of_asc_node": 77.9759,
        "meta_arg_of_pericenter": 64.8128,
        "meta_mean_anomaly": 350.8219,
        "meta_ephemeris_type": 0,
        "meta_classification_type": "U",
        "meta_norad_cat_id": 35476,
        "meta_element_set_no": 999,
        "meta_rev_at_epoch": 87759,
        "meta_bstar": 0.0039039,
        "meta_mean_motion_dot": 0.00026616,
        "meta_mean_motion_ddot": 0,
        "tle_line1": "1 35476U 93036ALW 25338.04791273  .00026616  00000+0  39039-2 0  9996",
        "tle_line2": "2 35476  73.9786  77.9759 0017249  64.8128 350.8219 14.75351110877595"
      },
      "geometry": {
        "type": "Point",
        "coordinates": [
          92.30288297594205,
          42.23387765282774
        ]
      }
    },
    {
      "type": "Feature",
      "properties": {
        "norad_id": 35580,
        "name": "COSMOS 2251 DEB",
        "group": "cosmos-2251-debris",
        "lat": -3.212333283957381,
        "lon": -168.09915405169303,
        "alt_km": 1144.383318578004,
        "timestamp": "2025-12-04T10:51:50.502281+00:00",
        "meta_object_name": "COSMOS 2251 DEB",
        "meta_object_id": "1993-036ALX",
        "meta_epoch": "2025-11-11T02:25:47.460864",
        "meta_mean_motion": 13.83664367,
        "meta_eccentricity": 0.0284653,
        "meta_inclination": 73.9022,
        "meta_ra_of_asc_node": 232.5156,
        "meta_arg_of_pericenter": 243.9426,
        "meta_mean_anomaly": 113.2144,
        "meta_ephemeris_type": 0,
        "meta_classification_type": "U",
        "meta_norad_cat_id": 35580,
        "meta_element_set_no": 999,
        "meta_rev_at_epoch": 61819,
        "meta_bstar": 0.0015271116,
        "meta_mean_motion_dot": 2.282e-05,
        "meta_mean_motion_ddot": 0,
        "tle_line1": "1 35580U 93036ALX 25315.10124376  .00002282  00000+0  15271-2 0  9993",
        "tle_line2": "2 35580  73.9022 232.5156 0284653 243.9426 113.2144 13.83664367618196"
      },
      "geometry": {
        "type": "Point",
        "coordinates": [
          -168.09915405169303,
          -3.212333283957381
        ]
      }
    },
    {
      "type": "Feature",
      "properties": {
        "norad_id": 35583,
        "name": "COSMOS 2251 DEB",
        "group": "cosmos-2251-debris",
        "lat": 1.0181710739343268,
        "lon": 45.153258742330785,
        "alt_km": 958.8814471002297,
        "timestamp": "2025-12-04T10:51:50.502291+00:00",
        "meta_object_name": "COSMOS 2251 DEB",
        "meta_object_id": "1993-036AMA",
        "meta_epoch": "2025-12-03T10:54:50.604768",
        "meta_mean_motion": 13.55314343,
        "meta_eccentricity": 0.03858841,
        "meta_inclination": 73.9176,
        "meta_ra_of_asc_node": 227.0636,
        "meta_arg_of_pericenter": 253.1142,
        "meta_mean_anomaly": 102.7326,
        "meta_ephemeris_type": 0,
        "meta_classification_type": "U",
        "meta_norad_cat_id": 35583,
        "meta_element_set_no": 999,
        "meta_rev_at_epoch": 82286,
        "meta_bstar": 0.0006499944,
        "meta_mean_motion_dot": 7.01e-06,
        "meta_mean_motion_ddot": 0,
        "tle_line1": "1 35583U 93036AMA 25337.45475237  .00000701  00000+0  64999-3 0  9999",
        "tle_line2": "2 35583  73.9176 227.0636 0385884 253.1142 102.7326 13.55314343822868"
      },
      "geometry": {
        "type": "Point",
        "coordinates": [
          45.153258742330785,
          1.0181710739343268
        ]
      }
    },
    {
      "type": "Feature",
      "properties": {
        "norad_id": 35585,
        "name": "COSMOS 2251 DEB",
        "group": "cosmos-2251-debris",
        "lat": -72.79162027294915,
        "lon": -109.60404489346854,
        "alt_km": 764.3407149623181,
        "timestamp": "2025-12-04T10:51:50.502302+00:00",
        "meta_object_name": "COSMOS 2251 DEB",
        "meta_object_id": "1993-036AMC",
        "meta_epoch": "2025-12-02T12:56:40.811136",
        "meta_mean_motion": 13.75197617,
        "meta_eccentricity": 0.03106301,
        "meta_inclination": 73.9718,
        "meta_ra_of_asc_node": 5.4431,
        "meta_arg_of_pericenter": 279.6941,
        "meta_mean_anomaly": 236.0495,
        "meta_ephemeris_type": 0,
        "meta_classification_type": "U",
        "meta_norad_cat_id": 35585,
        "meta_element_set_no": 999,
        "meta_rev_at_epoch": 63923,
        "meta_bstar": 0.0014709155,
        "meta_mean_motion_dot": 1.977e-05,
        "meta_mean_motion_ddot": 0,
        "tle_line1": "1 35585U 93036AMC 25336.53936124  .00001977  00000+0  14709-2 0  9995",
        "tle_line2": "2 35585  73.9718   5.4431 0310630 279.6941 236.0495 13.75197617639230"
      },
      "geometry": {
        "type": "Point",
        "coordinates": [
          -109.60404489346854,
          -72.79162027294915
        ]
      }
    },
    {
      "type": "Feature",
      "properties": {
        "norad_id": 35586,
        "name": "COSMOS 2251 DEB",
        "group": "cosmos-2251-debris",
        "lat": 55.984172497936626,
        "lon": -19.123005126603722,
        "alt_km": 1258.725576426532,
        "timestamp": "2025-12-04T10:51:50.502312+00:00",
        "meta_object_name": "COSMOS 2251 DEB",
        "meta_object_id": "1993-036AMD",
        "meta_epoch": "2025-12-02T16:49:03.133344",
        "meta_mean_motion": 13.52074918,
        "meta_eccentricity": 0.04051153,
        "meta_inclination": 74.0205,
        "meta_ra_of_asc_node": 318.5607,
        "meta_arg_of_pericenter": 196.0051,
        "meta_mean_anomaly": 342.734,
        "meta_ephemeris_type": 0,
        "meta_classification_type": "U",
        "meta_norad_cat_id": 35586,
        "meta_element_set_no": 999,
        "meta_rev_at_epoch": 60246,
        "meta_bstar": 0.00045411914,
        "meta_mean_motion_dot": 4.79e-06,
        "meta_mean_motion_ddot": 0,
        "tle_line1": "1 35586U 93036AMD 25336.70073071  .00000479  00000+0  45412-3 0  9990",
        "tle_line2": "2 35586  74.0205 318.5607 0405115 196.0051 342.7340 13.52074918602466"
      },
      "geometry": {
        "type": "Point",
        "coordinates": [
          -19.123005126603722,
          55.984172497936626
        ]
      }
    }
  ]
}